{"type": "FeatureCollection", "features": [ {"type": "Feature", "properties": {"norad_id": 34570, "name": "COSMOS 2251 DEB", "group": "cosmos-2251-debris", "lat": -62.11776463855065, "lon": -177.26837721571678, "alt_km": 1034.4992346533127, "timestamp": "2025-12-14T05:42:18.857251+00:00", "meta": {"OBJECT_NAME": "COSMOS 2251 DEB", "OBJECT_ID": "1993-036VG", "EPOCH": "2025-12-13T16:35:09.572064", "MEAN_MOTION": 13.99821406, "ECCENTRICITY": 0.01902307, "INCLINATION": 73.957, "RA_OF_ASC_NODE": 216.6281, "ARG_OF_PERICENTER": 98.9126, "MEAN_ANOMALY": 321.1998, "EPHEMERIS_TYPE": 0, "CLASSIFICATION_TYPE": "U", "NORAD_CAT_ID": 34570, "ELEMENT_SET_NO": 999, "REV_AT_EPOCH": 85614, "BSTAR": 0.00064873784, "MEAN_MOTION_DOT": 1.089e-05, "MEAN_MOTION_DDOT": 0}, "tle": {"line1": "1 34570U 93036VG  25347.69108301  .00001089  00000+0  64874-3 0  9998", "line2": "2 34570  73.9570 216.6281 0190230  98.9126 321.1998 13.99821406856148"}}, "geometry": {"type": "Point", "coordinates": [-177.26837721571678, -62.11776463855065]}}, {"type": "Feature", "properties": {"norad_id": 34571, "name": "COSMOS 2251 DEB", "group": "cosmos-2251-debris", "lat": 45.50912309296358, "lon": -163.43655377139288, "alt_km": 770.6408640102645, "timestamp": "2025-12-14T05:42:18.857261+00:00", "meta": {"OBJECT_NAME": "COSMOS 2251 DEB", "OBJECT_ID": "1993-036VH", "EPOCH": "2025-12-13T06:16:53.696640", "MEAN_MOTION": 14.48823759, "ECCENTRICITY": 0.00659661, "INCLINATION": 74.0385, "RA_OF_ASC_NODE": 181.4538, "ARG_OF_PERICENTER": 216.2761, "MEAN_ANOMALY": 143.3919, "EPHEMERIS_TYPE": 0, "CLASSIFICATION_TYPE": "U", "NORAD_CAT_ID": 34571, "ELEMENT_SET_NO": 999, "REV_AT_EPOCH": 87301, "BSTAR": 0.0035055675, "MEAN_MOTION_DOT": 0.00013615, "MEAN_MOTION_DDOT": 0}, "tle": {"line1": "1 34571U 93036VH  25347.26173260  .00013615  00000+0  35056-2 0  9995", "line2": "2 34571  74.0385 181.4538 0065966 216.2761 143.3919 14.48823759873016"}}, "geometry": {"type": "Point", "coordinates": [-163.43655377139288, 45.50912309296358]}}, {"type": "Feature", "properties": {"norad_id": 34572, "name": "COSMOS 2251 DEB", "group": "cosmos-2251-debris", "lat": -72.23523738232491, "lon": 49.18307792942049, "alt_km": 733.4482364274027, "timestamp": "2025-12-14T05:42:18.857271+00:00", "meta": {"OBJECT_NAME": "COSMOS 2251 DEB", "OBJECT_ID": "1993-036VJ", "EPOCH": "2025-12-12T01:39:23.053248", "MEAN_MOTION": 14.49993335, "ECCENTRICITY": 0.00629257, "INCLINATION": 74.0101, "RA_OF_ASC_NODE": 116.7677, "ARG_OF_PERICENTER": 190.7051, "MEAN_ANOMALY": 290.1646, "EPHEMERIS_TYPE": 0, "CLASSIFICATION_TYPE": "U", "NORAD_CAT_ID": 34572, "ELEMENT_SET_NO": 999, "REV_AT_EPOCH": 87368, "BSTAR": 0.0042166825, "MEAN_MOTION_DOT": 0.00016761, "MEAN_MOTION_DDOT": 0}, "tle": {"line1": "1 34572U 93036VJ  25346.06901682  .00016761  00000+0  42167-2 0  9996", "line2": "2 34572  74.0101 116.7677 0062925 190.7051 290.1646 14.49993335873688"}}, "geometry": {"type": "Point", "coordinates": [49.18307792942049, -72.23523738232491]}}, {"type": "Feature", "properties": {"norad_id": 34574, "name": "COSMOS 2251 DEB", "group": "cosmos-2251-debris", "lat": -73.342607154452, "lon": -32.440545904608534, "alt_km": 704.8878396161426, "timestamp": "2025-12-14T05:42:18.857282+00:00", "meta": {"OBJECT_NAME": "COSMOS 2251 DEB", "OBJECT_ID": "1993-036VL", "EPOCH": "2025-12-13T10:36:13.787136", "MEAN_MOTION": 14.70622113, "ECCENTRICITY": 0.00669303, "INCLINATION": 74.0694, "RA_OF_ASC_NODE": 41.7729, "ARG_OF_PERICENTER": 62.5438, "MEAN_ANOMALY": 320.8862, "EPHEMERIS_TYPE": 0, "CLASSIFICATION_TYPE": "U", "NORAD_CAT_ID": 34574, "ELEMENT_SET_NO": 999, "REV_AT_EPOCH": 88789, "BSTAR": 0.0014664729, "MEAN_MOTION_DOT": 9.216e-05, "MEAN_MOTION_DDOT": 0}, "tle": {"line1": "1 34574U 93036VL  25347.44182624  .00009216  00000+0  14665-2 0  9997", "line2": "2 34574  74.0694  41.7729 0066930  62.5438 320.8862 14.70622113887893"}}, "geometry": {"type": "Point", "coordinates": [-32.440545904608534, -73.342607154452]}}, {"type": "Feature", "properties": {"norad_id": 34576, "name": "COSMOS 2251 DEB", "group": "cosmos-2251-debris", "lat": 16.172603593352864, "lon": -49.403720359751055, "alt_km": 709.9929169586194, "timestamp": "2025-12-14T05:42:18.857292+00:00", "meta": {"OBJECT_NAME": "COSMOS 2251 DEB", "OBJECT_ID": "1993-036VN", "EPOCH": "2025-12-13T11:06:11.229408", "MEAN_MOTION": 14.554356, "ECCENTRICITY": 0.00080874, "INCLINATION": 74.0334, "RA_OF_ASC_NODE": 136.8269, "ARG_OF_PERICENTER": 272.6728, "MEAN_ANOMALY": 150.987, "EPHEMERIS_TYPE": 0, "CLASSIFICATION_TYPE": "U", "NORAD_CAT_ID": 34576, "ELEMENT_SET_NO": 999, "REV_AT_EPOCH": 88477, "BSTAR": 0.0014351344, "MEAN_MOTION_DOT": 6.219e-05, "MEAN_MOTION_DDOT": 0}, "tle": {"line1": "1 34576U 93036VN  25347.46262997  .00006219  00000+0  14351-2 0  9995", "line2": "2 34576  74.0334 136.8269 0008087 272.6728 150.9870 14.55435600884777"}}, "geometry": {"type": "Point", "coordinates": [-49.403720359751055, 16.172603593352864]}}, {"type": "Feature", "properties": {"norad_id": 34579, "name": "COSMOS 2251 DEB", "group": "cosmos-2251-debris", "lat": -31.768610658753587, "lon": -149.0944656739394, "alt_km": 731.1026840314753, "timestamp": "2025-12-14T05:42:18.857302+00:00", "meta": {"OBJECT_NAME": "COSMOS 2251 DEB", "OBJECT_ID": "1993-036VR", "EPOCH": "2025-12-13T16:49:58.317888", "MEAN_MOTION": 14.45312622, "ECCENTRICITY": 0.00275458, "INCLINATION": 74.053, "RA_OF_ASC_NODE": 222.1027, "ARG_OF_PERICENTER": 290.6153, "MEAN_ANOMALY": 126.5349, "EPHEMERIS_TYPE": 0, "CLASSIFICATION_TYPE": "U", "NORAD_CAT_ID": 34579, "ELEMENT_SET_NO": 999, "REV_AT_EPOCH": 88188, "BSTAR": 0.00055184265, "MEAN_MOTION_DOT": 1.92e-05, "MEAN_MOTION_DDOT": 0}, "tle": {"line1": "1 34579U 93036VR  25347.70136942  .00001920  00000+0  55184-3 0  9999", "line2": "2 34579  74.0530 222.1027 0027545 290.6153 126.5349 14.45312622881887"}}, "geometry": {"type": "Point", "coordinates": [-149.0944656739394, -31.768610658753587]}}, {"type": "Feature", "properties": {"norad_id": 34582, "name": "COSMOS 2251 DEB", "group": "cosmos-2251-debris", "lat": -67.39627221321749, "lon": 133.0859820739413, "alt_km": 774.1453586847947, "timestamp": "2025-12-14T05:42:18.857313+00:00", "meta": {"OBJECT_NAME": "COSMOS 2251 DEB", "OBJECT_ID": "1993-036VU", "EPOCH": "2025-12-13T11:53:49.503840", "MEAN_MOTION": 14.4333215, "ECCENTRICITY": 0.00478958, "INCLINATION": 74.0198, "RA_OF_ASC_NODE": 270.9708, "ARG_OF_PERICENTER": 20.9274, "MEAN_ANOMALY": 339.3828, "EPHEMERIS_TYPE": 0, "CLASSIFICATION_TYPE": "U", "NORAD_CAT_ID": 34582, "ELEMENT_SET_NO": 999, "REV_AT_EPOCH": 87958, "BSTAR": 0.0012643392, "MEAN_MOTION_DOT": 4.298e-05, "MEAN_MOTION_DDOT": 0}, "tle": {"line1": "1 34582U 93036VU  25347.49571185  .00004298  00000+0  12643-2 0  9994", "line2": "2 34582  74.0198 270.9708 0047895  20.9274 339.3828 14.43332150879582"}}, "geometry": {"type": "Point", "coordinates": [133.0859820739413, -67.39627221321749]}}, {"type": "Feature", "properties": {"norad_id": 34588, "name": "COSMOS 2251 DEB", "group": "cosmos-2251-debris", "lat": -54.68392005285761, "lon": -118.33900741011078, "alt_km": 745.3086135919448, "timestamp": "2025-12-14T05:42:18.857323+00:00", "meta": {"OBJECT_NAME": "COSMOS 2251 DEB", "OBJECT_ID": "1993-036WA", "EPOCH": "2025-12-13T12:28:55.428672", "MEAN_MOTION": 14.42027122, "ECCENTRICITY": 0.00191865, "INCLINATION": 74.0435, "RA_OF_ASC_NODE": 266.8091, "ARG_OF_PERICENTER": 319.3935, "MEAN_ANOMALY": 218.7207, "EPHEMERIS_TYPE": 0, "CLASSIFICATION_TYPE": "U", "NORAD_CAT_ID": 34588, "ELEMENT_SET_NO": 999, "REV_AT_EPOCH": 87961, "BSTAR": 0.00077402569, "MEAN_MOTION_DOT": 2.52e-05, "MEAN_MOTION_DDOT": 0}, "tle": {"line1": "1 34588U 93036WA  25347.52008598  .00002520  00000+0  77403-3 0  9999", "line2": "2 34588  74.0435 266.8091 0019186 319.3935 218.7207 14.42027122879616"}}, "geometry": {"type": "Point", "coordinates": [-118.33900741011078, -54.68392005285761]}}, {"type": "Feature", "properties": {"norad_id": 34589, "name": "COSMOS 2251 DEB", "group": "cosmos-2251-debris", "lat": -21.792677989701506, "lon": -119.89922085857819, "alt_km": 1112.1224440292026, "timestamp": "2025-12-14T05:42:18.857333+00:00", "meta": {"OBJECT_NAME": "COSMOS 2251 DEB", "OBJECT_ID": "1993-036WB", "EPOCH": "2025-12-12T15:20:35.958048", "MEAN_MOTION": 13.86051992, "ECCENTRICITY": 0.02519051, "INCLINATION": 73.9257, "RA_OF_ASC_NODE": 56.2034, "ARG_OF_PERICENTER": 359.5658, "MEAN_ANOMALY": 151.6395, "EPHEMERIS_TYPE": 0, "CLASSIFICATION_TYPE": "U", "NORAD_CAT_ID": 34589, "ELEMENT_SET_NO": 999, "REV_AT_EPOCH": 84710, "BSTAR": 0.00036082774, "MEAN_MOTION_DOT": 5.09e-06, "MEAN_MOTION_DDOT": 0}, "tle": {"line1": "1 34589U 93036WB  25346.63930507  .00000509  00000+0  36083-3 0  9999", "line2": "2 34589  73.9257  56.2034 0251905 359.5658 151.6395 13.86051992847101"}}, "geometry": {"type": "Point", "coordinates": [-119.89922085857819, -21.792677989701506]}}, {"type": "Feature", "properties": {"norad_id": 34590, "name": "COSMOS 2251 DEB", "group": "cosmos-2251-debris", "lat": -19.027631364669034, "lon": 145.37972279237837, "alt_km": 731.4799714733554, "timestamp": "2025-12-14T05:42:18.857343+00:00", "meta": {"OBJECT_NAME": "COSMOS 2251 DEB", "OBJECT_ID": "1993-036WC", "EPOCH": "2025-12-13T16:23:50.769600", "MEAN_MOTION": 14.54827183, "ECCENTRICITY": 0.00679412, "INCLINATION": 74.0438, "RA_OF_ASC_NODE": 320.7657, "ARG_OF_PERICENTER": 90.1034, "MEAN_ANOMALY": 85.9822, "EPHEMERIS_TYPE": 0, "CLASSIFICATION_TYPE": "U", "NORAD_CAT_ID": 34590, "ELEMENT_SET_NO": 999, "REV_AT_EPOCH": 89134, "BSTAR": 0.00019163962, "MEAN_MOTION_DOT": 8.18e-06, "MEAN_MOTION_DDOT": 0}, "tle": {"line1": "1 34590U 93036WC  25347.68322650  .00000818  00000+0  19164-3 0  9995", "line2": "2 34590  74.0438 320.7657 0067941  90.1034  85.9822 14.54827183891345"}}, "geometry": {"type": "Point", "coordinates": [145.37972279237837, -19.027631364669034]}}]}